STARLINK-37589          
1 69839U 26154W   26201.17423356  .00184143  00000+0  91312-3 0  9994
2 69839  53.1582 267.8215 0001016  97.1067 263.0071 15.80958869  3607
STARLINK-37487          
1 69840U 26154X   26201.25004630 -.00063034  00000+0 -31761-3 0  9994
2 69840  53.1589 266.9599 0001196  79.1274 224.3470 15.80908937  3457
STARLINK-37433          
1 69841U 26154Y   26201.25004630 -.00046349  00000+0 -23222-3 0  9998
2 69841  53.1593 266.9611 0001063  77.2406 225.5961 15.80903116  3583
STARLINK-37588          
1 69842U 26154Z   26201.25004630 -.00047463  00000+0 -23796-3 0  9993
2 69842  53.1590 266.9253 0001073  65.4442 254.5776 15.80898639  3481
STARLINK-37579          
1 69843U 26154AA  26201.25004630 -.00124803  00000+0 -63628-3 0  9996
2 69843  53.1592 266.9284 0000917  97.3531 221.0865 15.80929349  3488
STARLINK-37584          
1 69844U 26154AB  26201.25004630 -.00048079  00000+0 -24112-3 0  9992
2 69844  53.1594 266.9208 0001454  56.0835 266.1785 15.80896854  3488
STARLINK-37606          
1 69845U 26154AC  26201.25004630 -.00046636  00000+0 -23373-3 0  9998
2 69845  53.1592 266.9090 0001218  98.9495 228.4736 15.80898920  3484
STARLINK-37603          
1 69846U 26154AD  26201.25004630 -.00134535  00000+0 -68693-3 0  9999
2 69846  53.1595 266.9020 0001048  79.0161 251.7475 15.80929180  3484
STARLINK-37595          
1 69847U 26154AE  26201.25004630 -.00157882  00000+0 -80842-3 0  9990
2 69847  53.1596 266.8905 0000922  71.2455 264.7135 15.80943209  3482
QIANFAN-219             
1 69848U 26155A   26200.57147292 -.01799626  00000+0 -87017+0 0  9994
2 69848  89.0059  60.4479 0029457 207.2393 152.7255 14.22001674  2007
QIANFAN-220             
1 69849U 26155B   26201.23638996  .00000042  00000+0  13650-4 0  9996
2 69849  89.0062  60.3804 0029842 205.2693 154.7038 14.17597909  2097
QIANFAN-221             
1 69850U 26155C   26201.27342765  .00000187  00000+0  71265-4 0  9994
2 69850  89.0063  60.3675 0030842 206.1917 153.7718 14.26648448  2108
QIANFAN-222             
1 69851U 26155D   26198.83195585  .00000049  00000+0  15570-4 0  9992
2 69851  89.0065  60.6495 0029555 214.6997 145.2267 14.22185075  1758
QIANFAN-223             
1 69852U 26155E   26200.09572403 -.02023195  00000+0 -10600+1 0  9999
2 69852  89.0058  60.5062 0034502 216.3041 143.5808 14.18104033  1939
QIANFAN-224             
1 69853U 26155F   26198.89566005 -.01809487  00000+0 -93450+0 0  9993
2 69853  89.0052  60.6399 0031114 224.5648 135.3039 14.18497223  1760
QIANFAN-225             
1 69854U 26155G   26200.30196267 -.02042683  00000+0 -10600+1 0  9998
2 69854  89.0056  60.4814 0034267 215.2357 144.6567 14.18662242  1967
QIANFAN-226             
1 69855U 26155H   26200.36989704 -.01814487  00000+0 -95337+0 0  9998
2 69855  89.0058  60.4729 0033600 218.1332 141.7479 14.17543510  1976
QIANFAN-227             
1 69856U 26155J   26200.43462892 -.01743430  00000+0 -91043+0 0  9990
2 69856  89.0058  60.4639 0034256 216.4994 143.3861 14.18343532  1987
QIANFAN-228             
1 69857U 26155K   26198.95854703 -.01902873  00000+0 -95328+0 0  9998
2 69857  89.0055  60.6322 0031877 218.7208 141.1698 14.20295178  1771
QIANFAN-229             
1 69858U 26155L   26199.87010617  .00000161  00000+0  60230-4 0  9994
2 69858  89.0064  60.5275 0030818 210.5909 149.3489 14.26690212  1907
QIANFAN-230             
1 69859U 26155M   26198.90384435 -.01931944  00000+0 -10463+1 0  9994
2 69859  89.0054  60.6411 0032961 222.0372 137.8286 14.16167691  1763
QIANFAN-231             
1 69860U 26155N   26199.94418398  .00000187  00000+0  71811-4 0  9998
2 69860  89.0065  60.5202 0030899 209.7131 150.2309 14.26097133  1913
QIANFAN-232             
1 69861U 26155P   26199.93898905 -.01928897  00000+0 -92873+0 0  9990
2 69861  89.0055  60.5197 0029251 204.9431 155.0349 14.22492911  1912
QIANFAN-233             
1 69862U 26155Q   26200.56899891 -.01641998  00000+0 -79470+0 0  9990
2 69862  89.0060  60.4472 0028685 211.5277 148.4197 14.22233601  2003
QIANFAN-234             
1 69863U 26155R   26200.85162408  .00000183  00000+0  69313-4 0  9992
2 69863  89.0064  60.4155 0030727 207.7190 152.2368 14.26759635  2048
QIANFAN-235             
1 69864U 26155S   26201.27236751  .00000176  00000+0  66491-4 0  9999
2 69864  89.0063  60.3675 0030730 206.3122 153.6513 14.26765652  2108
QIANFAN-236             
1 69865U 26155T   26200.08004672  .00000191  00000+0  72759-4 0  9994
2 69865  89.0064  60.5035 0030561 210.4183 149.5239 14.26770514  1939
QIANFAN-237             
1 69866U 26155U   26201.13196272  .00000189  00000+0  71817-4 0  9991
2 69866  89.0063  60.3835 0030657 206.8464 153.1145 14.26779110  2076
QIANFAN-238             
1 69867U 26155V   26201.27215288  .00000194  00000+0  73943-4 0  9994
2 69867  89.0063  60.3674 0030653 206.3965 153.5669 14.26786643  2103
CZ-8A R/B               
1 69868U 26155W   26201.26218547  .00000314  00000+0  73522-4 0  9992
2 69868  88.9655  60.2767 0106569  86.2813 275.0571 14.48272286  2129
